NORAD_CAT_ID,OBJECT_NAME,OBJECT_TYPE,EPOCH,MEAN_MOTION,ECCENTRICITY,INCLINATION,RA_OF_ASC_NODE,ARG_OF_PERICENTER,MEAN_ANOMALY,BSTAR,MEAN_MOTION_DOT,MEAN_MOTION_DDOT,TLE_LINE0,TLE_LINE1,TLE_LINE2,SEMIMAJOR_AXIS,PERIOD,APOGEE,PERIGEE,DECAYED
56777.0,STARLINK-5582,PAYLOAD,2023-09-06 22:00:00,15.65130677,0.0003511,69.9985,135.9899,265.6053,316.4304,-0.010252,-0.00924026,0.0,0 STARLINK-5582,1 56777U 23078L   23249.91667824 -.00924026  00000-0 -10252-1 0  9991,2 56777  69.9985 135.9899 0003511 265.6053 316.4304 15.65130677  5930,6751.0,92.005,375.235,370.495,0.0
56777.0,STARLINK-5582,PAYLOAD,2023-09-07 12:00:00,15.63946881,0.0003451,69.9986,134.3629,261.7857,4.8245,-0.0099127,-0.00845932,0.0,0 STARLINK-5582,1 56777U 23078L   23250.50001157 -.00845932  00000-0 -99127-2 0  9996,2 56777  69.9986 134.3629 0003451 261.7857   4.8245 15.63946881 15884,6754.406,92.075,378.602,373.94,0.0
56777.0,STARLINK-5582,PAYLOAD,2023-09-07 14:00:01,15.63785012,0.0003552,69.9985,134.1308,263.0594,112.5736,-0.0098624,-0.00837206,0.0,0 STARLINK-5582,1 56777U 23078L   23250.58334491 -.00837206  00000-0 -98624-2 0  9990,2 56777  69.9985 134.1308 0003552 263.0594 112.5736 15.63785012  6047,6754.872,92.084,379.137,374.338,0.0
56777.0,STARLINK-5582,PAYLOAD,2023-09-07 22:00:00,15.63171576,0.000353,69.9985,133.2028,267.2689,183.9785,-0.011039,-0.00920848,0.0,0 STARLINK-5582,1 56777U 23078L   23250.91667824 -.00920848  00000-0 -11039-1 0  9995,2 56777  69.9985 133.2028 0003530 267.2689 183.9785 15.63171576  6098,6756.639,92.12,380.889,376.119,0.0
56777.0,STARLINK-5582,PAYLOAD,2023-09-08 12:00:00,15.61989768,0.0003409,69.9983,131.5802,263.0997,228.6136,-0.010647,-0.00853905,0.0,0 STARLINK-5582,1 56777U 23078L   23251.50001157 -.00853905  00000-0 -10647-1 0  9995,2 56777  69.9983 131.5802 0003409 263.0997 228.6136 15.61989768 16038,6760.047,92.19,384.217,379.608,0.0
56777.0,STARLINK-5582,PAYLOAD,2023-09-08 14:00:01,15.61837471,0.0003422,69.9983,131.3487,259.696,340.4508,-0.010831,-0.00862733,0.0,0 STARLINK-5582,1 56777U 23078L   23251.58334491 -.00862733  00000-0 -10831-1 0  9997,2 56777  69.9983 131.3487 0003422 259.6960 340.4508 15.61837471  5825,6760.486,92.199,384.665,380.038,0.0
56777.0,STARLINK-5582,PAYLOAD,2023-09-08 20:00:01,15.61391018,0.0003405,69.9988,130.6544,262.5317,302.6347,-0.012027,-0.00934442,0.0,0 STARLINK-5582,1 56777U 23078L   23251.83334491 -.00934442  00000-0 -12027-1 0  9991,2 56777  69.9988 130.6544 0003405 262.5317 302.6347 15.61391018 16089,6761.775,92.225,385.943,381.338,0.0
56777.0,STARLINK-5582,PAYLOAD,2023-09-08 22:00:00,15.61214935,0.000355,69.9987,130.4231,264.3908,49.0275,-0.011884,-0.0091864,0.0,0 STARLINK-5582,1 56777U 23078L   23251.91667824 -.00918640  00000-0 -11884-1 0  9991,2 56777  69.9987 130.4231 0003550 264.3908  49.0275 15.61214935  5875,6762.284,92.236,386.549,381.748,0.0
56777.0,STARLINK-5582,PAYLOAD,2023-09-09 14:00:01,15.59881557,0.0003402,69.9986,128.5748,261.1557,196.4678,-0.011679,-0.00862628,0.0,0 STARLINK-5582,1 56777U 23078L   23252.58334491 -.00862628  00000-0 -11679-1 0  9992,2 56777  69.9986 128.5748 0003402 261.1557 196.4678 15.59881557  5989,6766.137,92.315,390.303,385.7,0.0
56777.0,STARLINK-5582,PAYLOAD,2023-09-10 04:00:00,15.58763574,0.0003369,69.9982,126.9604,268.1112,223.1195,-0.012844,-0.00905,0.0,0 STARLINK-5582,1 56777U 23078L   23253.16667824 -.00905000  00000-0 -12844-1 0  9993,2 56777  69.9982 126.9604 0003369 268.1112 223.1195 15.58763574 16299,6769.371,92.381,393.517,388.956,0.0
56777.0,STARLINK-5582,PAYLOAD,2023-09-10 14:00:01,15.57924297,0.0003575,69.9985,125.8089,258.6203,49.4388,-0.012562,-0.008615,0.0,0 STARLINK-5582,1 56777U 23078L   23253.58334491 -.00861500  00000-0 -12562-1 0  9993,2 56777  69.9985 125.8089 0003575 258.6203  49.4388 15.57924297  6024,6771.802,92.431,396.088,391.246,0.0
56777.0,STARLINK-5582,PAYLOAD,2023-09-10 20:00:01,15.57479853,0.0003507,69.9989,125.1187,261.5458,8.0772,-0.014042,-0.0093918,0.0,0 STARLINK-5582,1 56777U 23078L   23253.83335648 -.00939180  00000-0 -14042-1 0  9991,2 56777  69.9989 125.1187 0003507 261.5458   8.0772 15.57479853 16404,6773.091,92.457,397.331,392.58,0.0
56777.0,STARLINK-5582,PAYLOAD,2023-09-11 14:00:01,15.55969,0.0003396,69.9983,123.0511,263.137,248.3154,-0.013509,-0.00861058,0.0,0 STARLINK-5582,1 56777U 23078L   23254.58334491 -.00861058  00000-0 -13509-1 0  9994,2 56777  69.9983 123.0511 0003396 263.1370 248.3154 15.55969000  5657,6777.474,92.547,401.641,397.038,0.0
56777.0,STARLINK-5582,PAYLOAD,2023-09-11 20:00:01,15.55524636,0.0003449,69.9983,122.3628,267.7405,203.453,-0.015189,-0.00943903,0.0,0 STARLINK-5582,1 56777U 23078L   23254.83334491 -.00943903  00000-0 -15189-1 0  9998,2 56777  69.9983 122.3628 0003449 267.7405 203.4530 15.55524636 16559,6778.765,92.573,402.968,398.292,0.0
56777.0,STARLINK-5582,PAYLOAD,2023-09-12 12:00:00,15.54160241,0.0003394,69.9982,120.5301,261.855,339.8669,-0.014112,-0.00843071,0.0,0 STARLINK-5582,1 56777U 23078L   23255.50001157 -.00843071  00000-0 -14112-1 0  9993,2 56777  69.9982 120.5301 0003394 261.8550 339.8669 15.54160241 16667,6782.732,92.655,406.899,402.295,0.0
56777.0,STARLINK-5582,PAYLOAD,2023-09-12 14:00:01,15.54020705,0.0003524,69.9983,120.3014,263.0212,84.8484,-0.014726,-0.00872548,0.0,0 STARLINK-5582,1 56777U 23078L   23255.58335648 -.00872548  00000-0 -14726-1 0  9998,2 56777  69.9983 120.3014 0003524 263.0212  84.8484 15.54020705  5818,6783.138,92.663,407.393,402.612,0.0
56777.0,STARLINK-5582,PAYLOAD,2023-09-12 20:00:01,15.53559635,0.0003552,69.9982,119.6152,265.3811,40.4119,-0.01613,-0.00933604,0.0,0 STARLINK-5582,1 56777U 23078L   23255.83334491 -.00933604  00000-0 -16130-1 0  9993,2 56777  69.9982 119.6152 0003552 265.3811  40.4119 15.53559635 16714,6784.48,92.69,408.755,403.935,0.0
56777.0,STARLINK-5582,PAYLOAD,2023-09-12 22:00:00,15.53377475,0.0003547,69.9981,119.3866,269.0341,142.6642,-0.01568,-0.00904406,0.0,0 STARLINK-5582,1 56777U 23078L   23255.91667824 -.00904406  00000-0 -15680-1 0  9998,2 56777  69.9981 119.3866 0003547 269.0341 142.6642 15.53377475  5865,6785.01,92.701,409.282,404.469,0.0
56777.0,STARLINK-5582,PAYLOAD,2023-09-13 14:00:01,15.52057189,0.0003429,69.9979,117.5594,262.3758,274.7431,-0.015461,-0.00854658,0.0,0 STARLINK-5582,1 56777U 23078L   23256.58334491 -.00854658  00000-0 -15461-1 0  9993,2 56777  69.9979 117.5594 0003429 262.3758 274.7431 15.52057189  5978,6788.858,92.78,413.05,408.395,0.0
56777.0,STARLINK-5582,PAYLOAD,2023-09-13 20:00:01,15.51414453,0.0003533,69.9981,116.875,266.2434,227.1331,-0.0051757,-0.00295156,0.0,0 STARLINK-5582,1 56777U 23078L   23256.83334491 -.00295156  00000-0 -51757-2 0  9992,2 56777  69.9981 116.8750 0003533 266.2434 227.1331 15.51414453 16868,6790.732,92.819,414.997,410.198,0.0
56777.0,STARLINK-5582,PAYLOAD,2023-09-13 22:00:00,15.51257855,0.0003387,69.9981,116.647,268.7927,329.8927,-0.0010467,-0.00061249,0.0,0 STARLINK-5582,1 56777U 23078L   23256.91667824 -.00061249  00000-0 -10467-2 0  9997,2 56777  69.9981 116.6470 0003387 268.7927 329.8927 15.51257855  6025,6791.189,92.828,415.355,410.754,0.0
56777.0,STARLINK-5582,PAYLOAD,2023-09-14 04:00:00,15.51241994,0.0003327,69.9979,115.9634,268.9494,285.4279,-0.00060367,-0.00035488,0.0,0 STARLINK-5582,1 56777U 23078L   23257.16667824 -.00035488  00000-0 -60367-3 0  9996,2 56777  69.9979 115.9634 0003327 268.9494 285.4279 15.51241994 16914,6791.236,92.829,415.36,410.841,0.0
56777.0,STARLINK-5582,PAYLOAD,2023-09-14 14:00:01,15.51221375,0.0003343,69.9985,114.8243,263.3672,97.2184,0.00039906,0.00023342,0.0,0 STARLINK-5582,1 56777U 23078L   23257.58335648  .00023342  00000-0  39906-3 0  9997,2 56777  69.9985 114.8243 0003343 263.3672  97.2184 15.51221375  5957,6791.296,92.83,415.431,410.891,0.0
56777.0,STARLINK-5582,PAYLOAD,2023-09-14 20:00:01,15.51283462,0.0003456,69.9985,114.1404,268.2723,47.9283,-0.0028252,-0.00163097,0.0,0 STARLINK-5582,1 56777U 23078L   23257.83334491 -.00163097  00000-0 -28252-2 0  9995,2 56777  69.9985 114.1404 0003456 268.2723  47.9283 15.51283462 17023,6791.115,92.826,415.327,410.633,0.0
56777.0,STARLINK-5582,PAYLOAD,2023-09-14 22:00:00,15.51342102,0.0003407,69.9985,113.9125,272.5904,148.8307,-0.0065148,-0.00367203,0.0,0 STARLINK-5582,1 56777U 23078L   23257.91667824 -.00367203  00000-0 -65148-2 0  9993,2 56777  69.9985 113.9125 0003407 272.5904 148.8307 15.51342102  6017,6790.944,92.823,415.122,410.495,0.0
56777.0,STARLINK-5582,PAYLOAD,2023-09-15 04:00:00,15.51297512,0.0003494,69.9985,113.2289,271.8287,105.2883,-0.01791,-0.00966811,0.0,0 STARLINK-5582,1 56777U 23078L   23258.16667824 -.00966811  00000-0 -17910-1 0  9994,2 56777  69.9985 113.2289 0003494 271.8287 105.2883 15.51297512 17071,6791.074,92.826,415.312,410.566,0.0
56777.0,STARLINK-5582,PAYLOAD,2023-09-15 12:00:00,15.50589078,0.0003409,69.9991,112.3181,266.0941,171.607,-0.016312,-0.00855389,0.0,0 STARLINK-5582,1 56777U 23078L   23258.50001157 -.00855389  00000-0 -16312-1 0  9995,2 56777  69.9991 112.3181 0003409 266.0941 171.6070 15.50589078 17129,6793.142,92.868,417.323,412.691,0.0
56777.0,STARLINK-5582,PAYLOAD,2023-09-15 14:00:01,15.50453586,0.0003258,69.9993,112.0906,263.2435,279.4662,-0.017147,-0.00891307,0.0,0 STARLINK-5582,1 56777U 23078L   23258.58334491 -.00891307  00000-0 -17147-1 0  9990,2 56777  69.9993 112.0906 0003258 263.2435 279.4662 15.50453586  6050,6793.538,92.876,417.616,413.189,0.0
56777.0,STARLINK-5582,PAYLOAD,2023-09-15 20:00:01,15.49966747,0.0003374,69.9992,111.408,269.231,228.2561,-0.017921,-0.00925995,0.0,0 STARLINK-5582,1 56777U 23078L   23258.83334491 -.00925995  00000-0 -17921-1 0  9999,2 56777  69.9992 111.4080 0003374 269.2310 228.2561 15.49966747 17173,6794.96,92.905,419.118,414.533,0.0
56777.0,STARLINK-5582,PAYLOAD,2023-09-16 14:00:01,15.48499188,0.0003498,69.999,109.3633,263.4832,95.6598,-0.018466,-0.00907576,0.0,0 STARLINK-5582,1 56777U 23078L   23259.58334491 -.00907576  00000-0 -18466-1 0  9992,2 56777  69.9990 109.3633 0003498 263.4832  95.6598 15.48499188  6020,6799.253,92.993,423.496,418.739,0.0
